ALOS (DAICHI)           
1 28931U 06002A   25351.73419158  .00001110  00000+0  19545-3 0  9994
2 28931  98.1098 303.1864 0001361 113.5739 246.5610 14.69501788 61443
H-2A R/B                
1 28932U 06002B   25356.82687501  .00009724  00000+0  50879-3 0  9993
2 28932  98.2323 132.4008 0054835 142.2339 218.2759 15.14759907 82798
RESURS-DK 1             
1 29228U 06021A   25356.48802036  .00002606  00000+0  15666-3 0  9994
2 29228  69.9337  76.6450 0006866 250.3556 109.6869 15.12211490 75852
CZ-4B R/B               
1 29507U 06046C   25356.07634972  .00005174  00000+0  26939-3 0  9996
2 29507  97.5716  36.1893 0034057 173.9689 186.1961 15.15958131 48285
CZ-2C R/B               
1 31114U 07010B   25356.79342302  .00000130  00000+0  78605-4 0  9992
2 31114  98.3976 108.9383 0059531 156.8301 203.5581 14.20213656968808
COSMO-SKYMED 1          
1 31598U 07023A   25356.82243534  .00003230  00000+0  29447-3 0  9996
2 31598  97.8839 182.2882 0001460  80.5923 279.5463 14.95838883  3412
COSMOS 2428             
1 31792U 07029A   25356.43766246  .00000192  00000+0  12909-3 0  9994
2 31792  70.9366   5.5178 0004225   9.9266 350.1937 14.12893580953181
SL-16 R/B               
1 31793U 07029B   25356.37819657  .00000270  00000+0  16459-3 0  9994
2 31793  70.9760 334.8962 0001889 263.0492 259.9340 14.14817287954431
KORONAS-FOTON           
1 33504U 09003A   25356.42791098  .00011031  00000+0  26250-3 0  9991
2 33504  82.4309 356.0648 0013380  78.3070 281.9677 15.41379476933838
CZ-2C R/B               
1 37731U 11030B   25356.86259346  .00001200  00000+0  15869-3 0  9994
2 37731  97.8429 310.7460 0051450 239.7249 174.4030 14.80931189778728
H-2A R/B                
1 38341U 12025E   25356.81670133  .00002827  00000+0  26316-3 0  9998
2 38341  98.4610 312.8242 0044437 202.6251 157.3009 14.94503807736733
SHIJIAN-16 (SJ-16)      
1 39358U 13057A   25356.86163280  .00001070  00000+0  10809-3 0  9997
2 39358  74.9732 330.5016 0017935 296.3451  63.5895 14.92008973660040
